STARLINK-2098           
1 47378U 21005AF  26068.08594952 -.00000362  00000+0 -98556-7 0  9993
2 47378  53.1592  16.9696 0001227  84.6552 275.4589 15.30199006283620
TOMORROW-S2             
1 60485U 24149T   26068.75188364  .00008133  00000+0  27683-3 0  9990
2 60485  97.3857 150.0385 0001648 234.3331 125.7757 15.30674935 86869
